{
"type": "FeatureCollection",
"name": "livade_BUFFER_Vrbani_FINAL",
"crs": { "type": "name", "properties": { "name": "urn:ogc:def:crs:OGC:1.3:CRS84" } },
"features": [
{ "type": "Feature", "properties": { "id": 13, "povrsina": 2865.224 }, "geometry": { "type": "Polygon", "coordinates": [ [ [ 15.9129967, 45.7896815 ], [ 15.9128981, 45.7891189 ], [ 15.9132533, 45.789062199999989 ], [ 15.9134855, 45.7890182 ], [ 15.9135273, 45.7892922 ], [ 15.9135654, 45.7895672 ], [ 15.9131025, 45.789665 ], [ 15.9130337, 45.7896758 ], [ 15.9129967, 45.7896815 ] ] ] } },
{ "type": "Feature", "properties": { "id": 9, "povrsina": 890.398 }, "geometry": { "type": "Polygon", "coordinates": [ [ [ 15.91214642363628, 45.78996378970588 ], [ 15.912917942890353, 45.789883514957594 ], [ 15.912900127508475, 45.789745267141335 ], [ 15.912128468445083, 45.789839019712339 ], [ 15.91214642363628, 45.78996378970588 ] ] ] } },
{ "type": "Feature", "properties": { "id": 11, "povrsina": 2281.398 }, "geometry": { "type": "Polygon", "coordinates": [ [ [ 15.90943229219965, 45.790624673912639 ], [ 15.909834532909981, 45.790849150170267 ], [ 15.909950129909367, 45.790849747199857 ], [ 15.910051685612633, 45.791268110017157 ], [ 15.910350384515969, 45.791262912585644 ], [ 15.910136820015602, 45.791416814797152 ], [ 15.910184381696805, 45.791474344622955 ], [ 15.910131008138173, 45.791511135393257 ], [ 15.909771826164908, 45.79131383996318 ], [ 15.909812670536853, 45.79109502275945 ], [ 15.909252977360053, 45.790728206541736 ], [ 15.90943229219965, 45.790624673912639 ] ] ] } },
{ "type": "Feature", "properties": { "id": 19, "povrsina": 6266.869 }, "geometry": { "type": "Polygon", "coordinates": [ [ [ 15.91186256216433, 45.788544647388655 ], [ 15.913097809915229, 45.788335340544286 ], [ 15.912928171703017, 45.787977284418851 ], [ 15.912584017483637, 45.787726160256668 ], [ 15.911936935930486, 45.787884575632248 ], [ 15.911788123388774, 45.78829490890044 ], [ 15.911761241703493, 45.788560974124827 ], [ 15.91186256216433, 45.788544647388655 ] ] ] } },
{ "type": "Feature", "properties": { "id": 16, "povrsina": 4393.009 }, "geometry": { "type": "Polygon", "coordinates": [ [ [ 15.91262475867952, 45.79377786627969 ], [ 15.913267161597012, 45.794186368899176 ], [ 15.913844815654233, 45.793764756293342 ], [ 15.913203644009904, 45.793353735967926 ], [ 15.91262475867952, 45.79377786627969 ] ] ] } },
{ "type": "Feature", "properties": { "id": 20, "povrsina": 8558.297 }, "geometry": { "type": "Polygon", "coordinates": [ [ [ 15.911337091175533, 45.793921610566663 ], [ 15.912418040970678, 45.794655021725532 ], [ 15.913087756715925, 45.794183341440622 ], [ 15.911992250518747, 45.79345997063573 ], [ 15.911337091175533, 45.793921610566663 ] ] ] } },
{ "type": "Feature", "properties": { "id": "2", "@id": "2", "povrsina": 451.33 }, "geometry": { "type": "Polygon", "coordinates": [ [ [ 15.917525051040373, 45.792088109969981 ], [ 15.918058930874921, 45.792222563200752 ], [ 15.918102580661747, 45.792136121972256 ], [ 15.917579236863078, 45.792001827952738 ], [ 15.917525051040373, 45.792088109969981 ] ] ] } },
{ "type": "Feature", "properties": { "id": "1", "@id": "1", "povrsina": 342.293 }, "geometry": { "type": "Polygon", "coordinates": [ [ [ 15.918165872206552, 45.79195585136943 ], [ 15.918180628927056, 45.791926441955368 ], [ 15.917918762131766, 45.791863611810889 ], [ 15.917984442888649, 45.791743059706448 ], [ 15.917791056128944, 45.791695741566279 ], [ 15.917696958871399, 45.791827521357334 ], [ 15.918165872206552, 45.79195585136943 ] ] ] } },
{ "type": "Feature", "properties": { "id": 5, "povrsina": 569.824 }, "geometry": { "type": "Polygon", "coordinates": [ [ [ 15.912850344973243, 45.790816564783974 ], [ 15.913121450532634, 45.790686540713054 ], [ 15.912973234678651, 45.790581319700813 ], [ 15.91257994487666, 45.79065006134568 ], [ 15.912850344973243, 45.790816564783974 ] ] ] } },
{ "type": "Feature", "properties": { "id": 14, "povrsina": 2975.005 }, "geometry": { "type": "Polygon", "coordinates": [ [ [ 15.910060685892791, 45.793396836293475 ], [ 15.910340058054322, 45.793398278423595 ], [ 15.910216917878566, 45.792285653897984 ], [ 15.909869548964839, 45.792337774907097 ], [ 15.910060685892791, 45.793396836293475 ] ] ] } },
{ "type": "Feature", "properties": { "id": 4, "povrsina": 565.612 }, "geometry": { "type": "Polygon", "coordinates": [ [ [ 15.913139889095573, 45.7898475888449 ], [ 15.913603258480054, 45.789755617296962 ], [ 15.913560119800149, 45.789620609277392 ], [ 15.91310154139031, 45.789715132510963 ], [ 15.913139889095573, 45.7898475888449 ] ] ] } },
{ "type": "Feature", "properties": { "id": 8, "povrsina": 751.887 }, "geometry": { "type": "Polygon", "coordinates": [ [ [ 15.914660005133154, 45.78946029329375 ], [ 15.915336348178096, 45.789268315618898 ], [ 15.915255737646234, 45.789146595137758 ], [ 15.914603230966312, 45.789362282126234 ], [ 15.914660005133154, 45.78946029329375 ] ] ] } },
{ "type": "Feature", "properties": { "id": "3", "@id": "3", "povrsina": 327.815 }, "geometry": { "type": "Polygon", "coordinates": [ [ [ 15.915549309125351, 45.789170000031149 ], [ 15.915887583551696, 45.789063900587756 ], [ 15.915825973638331, 45.788967550132554 ], [ 15.915494889052031, 45.789077055842256 ], [ 15.915549309125351, 45.789170000031149 ] ] ] } },
{ "type": "Feature", "properties": { "id": 18, "povrsina": 6203.403 }, "geometry": { "type": "Polygon", "coordinates": [ [ [ 15.916378, 45.790547 ], [ 15.9167832, 45.7908125 ], [ 15.9167602, 45.7908295 ], [ 15.9168723, 45.790903 ], [ 15.9167647, 45.7909828 ], [ 15.9166902, 45.790934 ], [ 15.9166411, 45.790971599999985 ], [ 15.9167363, 45.7910289 ], [ 15.9167684, 45.7910373 ], [ 15.9169712, 45.7909781 ], [ 15.9178308, 45.7906395 ], [ 15.9176471, 45.7905413 ], [ 15.9175801, 45.790573 ], [ 15.9172036, 45.7903218 ], [ 15.9171556, 45.7902259 ], [ 15.916949, 45.7900902 ], [ 15.9169424, 45.790086 ], [ 15.9169884, 45.7900513 ], [ 15.9169137, 45.7900049 ], [ 15.9168931, 45.79000150000001 ], [ 15.9168526, 45.7900303 ], [ 15.9162447, 45.7904686 ], [ 15.916378, 45.790547 ] ] ] } },
{ "type": "Feature", "properties": { "id": 15, "povrsina": 3481.72 }, "geometry": { "type": "Polygon", "coordinates": [ [ [ 15.9170083, 45.7899193 ], [ 15.9169748, 45.78994320000001 ], [ 15.9169749, 45.7899565 ], [ 15.9169844, 45.7899703 ], [ 15.9170659, 45.790030299999984 ], [ 15.9171178, 45.7899927 ], [ 15.9174275, 45.7902004 ], [ 15.917559, 45.790228 ], [ 15.9178134, 45.7903855 ], [ 15.9177793, 45.79041 ], [ 15.9178674, 45.7904678 ], [ 15.9178748, 45.790541499999989 ], [ 15.9178538, 45.7905589 ], [ 15.9179311, 45.7906126 ], [ 15.9180458, 45.7905607 ], [ 15.9181497, 45.7905149 ], [ 15.9181624, 45.790504 ], [ 15.9181736, 45.7904835 ], [ 15.9181738, 45.7904675 ], [ 15.9181683, 45.7904488 ], [ 15.9180959, 45.7903666 ], [ 15.9174597, 45.7896636 ], [ 15.9174242, 45.7896483 ], [ 15.9174071, 45.7896516 ], [ 15.917362, 45.7896775 ], [ 15.9173484, 45.7896677 ], [ 15.9170083, 45.7899193 ] ] ] } },
{ "type": "Feature", "properties": { "id": 12, "povrsina": 2717.465 }, "geometry": { "type": "Polygon", "coordinates": [ [ [ 15.9184564, 45.7903523 ], [ 15.9184717, 45.7903576 ], [ 15.9184891, 45.7903566 ], [ 15.9191822, 45.7900365 ], [ 15.9190672, 45.7900322 ], [ 15.918986, 45.7900221 ], [ 15.9189004, 45.7900066 ], [ 15.9188178, 45.7899878 ], [ 15.9187727, 45.7899759 ], [ 15.9178583, 45.7896733 ], [ 15.9178514, 45.789681699999988 ], [ 15.9184564, 45.7903523 ] ] ] } },
{ "type": "Feature", "properties": { "id": 22, "povrsina": 19054.182 }, "geometry": { "type": "Polygon", "coordinates": [ [ [ 15.9129886, 45.7875048 ], [ 15.9133414, 45.7883016 ], [ 15.9136462, 45.7882066 ], [ 15.9150544, 45.7877345 ], [ 15.91561, 45.7875319 ], [ 15.9156458, 45.787467199999988 ], [ 15.9148373, 45.7866754 ], [ 15.9140185, 45.7870438 ], [ 15.9134768, 45.787300799999983 ], [ 15.9129886, 45.7875048 ] ] ] } },
{ "type": "Feature", "properties": { "id": 21, "povrsina": 13680.446 }, "geometry": { "type": "Polygon", "coordinates": [ [ [ 15.9106834, 45.788728399999982 ], [ 15.9110313, 45.788688 ], [ 15.9116748, 45.7885975 ], [ 15.9116871, 45.787805 ], [ 15.9113226, 45.787789299999986 ], [ 15.9109523, 45.7877001 ], [ 15.9107258, 45.7876139 ], [ 15.9104925, 45.7874664 ], [ 15.9098044, 45.7884598 ], [ 15.9102823, 45.7885639 ], [ 15.910318, 45.7887671 ], [ 15.9106834, 45.788728399999982 ] ] ] } },
{ "type": "Feature", "properties": { "id": 6, "povrsina": 644.948 }, "geometry": { "type": "Polygon", "coordinates": [ [ [ 15.917336985670902, 45.793032341697085 ], [ 15.917189779302479, 45.793305481349101 ], [ 15.917460006736558, 45.793375516308195 ], [ 15.9175379, 45.7932318 ], [ 15.9174924, 45.7932199 ], [ 15.917474, 45.7932578 ], [ 15.9173916, 45.7932384 ], [ 15.9174388, 45.793141 ], [ 15.9175212, 45.7931604 ], [ 15.9175036, 45.7931967 ], [ 15.917551, 45.7932077 ], [ 15.917609659831742, 45.793098597911936 ], [ 15.917336985670902, 45.793032341697085 ] ] ] } },
{ "type": "Feature", "properties": { "id": 17, "povrsina": 5038.397 }, "geometry": { "type": "Polygon", "coordinates": [ [ [ 15.9174594, 45.7893331 ], [ 15.9174786, 45.7893627 ], [ 15.9175765, 45.789469 ], [ 15.917615, 45.7895018 ], [ 15.9176589, 45.7895259 ], [ 15.917746, 45.7895601 ], [ 15.918798, 45.7899062 ], [ 15.9188346, 45.7899147 ], [ 15.9188397, 45.7899005 ], [ 15.9188447, 45.7898806 ], [ 15.9188559, 45.7898714 ], [ 15.9187584, 45.7897779 ], [ 15.9184175, 45.7893731 ], [ 15.9182062, 45.7891338 ], [ 15.9181466, 45.7890923 ], [ 15.9180789, 45.7890605 ], [ 15.9179984, 45.789035299999988 ], [ 15.9179026, 45.7890215 ], [ 15.9177999, 45.789020600000015 ], [ 15.9177182, 45.7890361 ], [ 15.9176504, 45.7890581 ], [ 15.9175582, 45.789098 ], [ 15.917501, 45.7891371 ], [ 15.9174718, 45.7891778 ], [ 15.917459, 45.7892103 ], [ 15.9174485, 45.7892437 ], [ 15.9174508, 45.789282 ], [ 15.9174594, 45.7893331 ] ] ] } },
{ "type": "Feature", "properties": { "id": 10, "povrsina": 1990.507 }, "geometry": { "type": "Polygon", "coordinates": [ [ [ 15.9172825, 45.7890375 ], [ 15.9173734, 45.7891514 ], [ 15.9173544, 45.78925 ], [ 15.9173696, 45.7892989 ], [ 15.9175591, 45.7895149 ], [ 15.9176272, 45.7895483 ], [ 15.9176538, 45.789553799999986 ], [ 15.9175582, 45.7894933 ], [ 15.9174384, 45.789356399999988 ], [ 15.917409, 45.7892947 ], [ 15.9174069, 45.7892543 ], [ 15.9174242, 45.7891934 ], [ 15.917474, 45.7891183 ], [ 15.9175015, 45.7890935 ], [ 15.9178754, 45.7889328 ], [ 15.9179933, 45.7889166 ], [ 15.918068, 45.7889198 ], [ 15.9181603, 45.7889369 ], [ 15.9182268, 45.7889768 ], [ 15.9183214, 45.789081 ], [ 15.9183821, 45.7890623 ], [ 15.9189796, 45.7897576 ], [ 15.9190131, 45.7897875 ], [ 15.9190681, 45.7897454 ], [ 15.9190925, 45.7897268 ], [ 15.918597, 45.7892024 ], [ 15.918413, 45.789037 ], [ 15.9183528, 45.7889803 ], [ 15.918299, 45.7889491 ], [ 15.9182896, 45.7889267 ], [ 15.918291, 45.788907 ], [ 15.9183312, 45.7888883 ], [ 15.9182571, 45.7888792 ], [ 15.9180922, 45.7888642 ], [ 15.9180699, 45.7887261 ], [ 15.9176111, 45.7889015 ], [ 15.9175001, 45.7889584 ], [ 15.9173985, 45.789025 ], [ 15.9173538, 45.7890121 ], [ 15.9173199, 45.7890186 ], [ 15.9172825, 45.7890375 ] ] ] } },
{ "type": "Feature", "properties": { "id": 7, "povrsina": 726.011 }, "geometry": { "type": "Polygon", "coordinates": [ [ [ 15.9154845, 45.7921903 ], [ 15.9154745, 45.7921173 ], [ 15.9149884, 45.7921677 ], [ 15.914981, 45.7921708 ], [ 15.914982, 45.7921745 ], [ 15.9154393, 45.792335 ], [ 15.9154495, 45.7923231 ], [ 15.9154743, 45.7923037 ], [ 15.9154978, 45.7922894 ], [ 15.9155161, 45.792281399999986 ], [ 15.9155362, 45.7922755 ], [ 15.9155601, 45.7922713 ], [ 15.9155771, 45.79227070000001 ], [ 15.9156194, 45.7922784 ], [ 15.9156637, 45.7921326 ], [ 15.9156646, 45.7921242 ], [ 15.9156612, 45.792114099999985 ], [ 15.9156535, 45.7921082 ], [ 15.9156437, 45.7921043 ], [ 15.9156292, 45.7921022 ], [ 15.9155046, 45.792115 ], [ 15.9155144, 45.792187 ], [ 15.9154845, 45.7921903 ] ] ] } }
]
}
