{
"type": "FeatureCollection",
"name": "mreza_wgs_Vrbani",
"crs": { "type": "name", "properties": { "name": "urn:ogc:def:crs:OGC:1.3:CRS84" } },
"features": [
{ "type": "Feature", "properties": { "id": 1, "left": 442737.9313, "top": 5078792.2682999996, "right": 469259.4542, "bottom": 5078792.2682999996 }, "geometry": { "type": "LineString", "coordinates": [ [ 15.782272425159276, 45.850636514950544 ], [ 16.123753727644413, 45.852271190640636 ] ] } },
{ "type": "Feature", "properties": { "id": 2, "left": 442737.9313, "top": 5077792.2682999996, "right": 469259.4542, "bottom": 5077792.2682999996 }, "geometry": { "type": "LineString", "coordinates": [ [ 15.782388127572229, 45.84163933442607 ], [ 16.123814385622552, 45.84327350001643 ] ] } },
{ "type": "Feature", "properties": { "id": 3, "left": 442737.9313, "top": 5076792.2682999996, "right": 469259.4542, "bottom": 5076792.2682999996 }, "geometry": { "type": "LineString", "coordinates": [ [ 15.782503775056322, 45.832642139444488 ], [ 16.123875014801541, 45.834275795098208 ] ] } },
{ "type": "Feature", "properties": { "id": 4, "left": 442737.9313, "top": 5075792.2682999996, "right": 469259.4542, "bottom": 5075792.2682999996 }, "geometry": { "type": "LineString", "coordinates": [ [ 15.782619367643745, 45.823644930005734 ], [ 16.123935615198263, 45.825278075885876 ] ] } },
{ "type": "Feature", "properties": { "id": 5, "left": 442737.9313, "top": 5074792.2682999996, "right": 469259.4542, "bottom": 5074792.2682999996 }, "geometry": { "type": "LineString", "coordinates": [ [ 15.782734905366668, 45.814647706109845 ], [ 16.123996186829583, 45.816280342379322 ] ] } },
{ "type": "Feature", "properties": { "id": 6, "left": 442737.9313, "top": 5073792.2682999996, "right": 469259.4542, "bottom": 5073792.2682999996 }, "geometry": { "type": "LineString", "coordinates": [ [ 15.78285038825724, 45.805650467756763 ], [ 16.124056729712365, 45.807282594578396 ] ] } },
{ "type": "Feature", "properties": { "id": 7, "left": 442737.9313, "top": 5072792.2682999996, "right": 469259.4542, "bottom": 5072792.2682999996 }, "geometry": { "type": "LineString", "coordinates": [ [ 15.782965816347565, 45.796653214946495 ], [ 16.124117243863438, 45.798284832483013 ] ] } },
{ "type": "Feature", "properties": { "id": 8, "left": 442737.9313, "top": 5071792.2682999996, "right": 469259.4542, "bottom": 5071792.2682999996 }, "geometry": { "type": "LineString", "coordinates": [ [ 15.78308118966974, 45.787655947679056 ], [ 16.124177729299635, 45.789287056093045 ] ] } },
{ "type": "Feature", "properties": { "id": 9, "left": 442737.9313, "top": 5070792.2682999996, "right": 469259.4542, "bottom": 5070792.2682999996 }, "geometry": { "type": "LineString", "coordinates": [ [ 15.783196508255831, 45.778658665954389 ], [ 16.124238186037768, 45.780289265408364 ] ] } },
{ "type": "Feature", "properties": { "id": 10, "left": 442737.9313, "top": 5069792.2682999996, "right": 469259.4542, "bottom": 5069792.2682999996 }, "geometry": { "type": "LineString", "coordinates": [ [ 15.783311772137864, 45.769661369772493 ], [ 16.124298614094638, 45.771291460428877 ] ] } },
{ "type": "Feature", "properties": { "id": 11, "left": 442737.9313, "top": 5068792.2682999996, "right": 469259.4542, "bottom": 5068792.2682999996 }, "geometry": { "type": "LineString", "coordinates": [ [ 15.783426981347862, 45.76066405913339 ], [ 16.124359013487027, 45.762293641154464 ] ] } },
{ "type": "Feature", "properties": { "id": 12, "left": 442737.9313, "top": 5067792.2682999996, "right": 469259.4542, "bottom": 5067792.2682999996 }, "geometry": { "type": "LineString", "coordinates": [ [ 15.7835421359178, 45.751666734037052 ], [ 16.124419384231707, 45.753295807584998 ] ] } },
{ "type": "Feature", "properties": { "id": 13, "left": 442737.9313, "top": 5066792.2682999996, "right": 469259.4542, "bottom": 5066792.2682999996 }, "geometry": { "type": "LineString", "coordinates": [ [ 15.783657235879637, 45.742669394483471 ], [ 16.124479726345434, 45.744297959720399 ] ] } },
{ "type": "Feature", "properties": { "id": 14, "left": 442737.9313, "top": 5065792.2682999996, "right": 469259.4542, "bottom": 5065792.2682999996 }, "geometry": { "type": "LineString", "coordinates": [ [ 15.783772281265307, 45.733672040472648 ], [ 16.124540039844955, 45.735300097560561 ] ] } },
{ "type": "Feature", "properties": { "id": 15, "left": 442737.9313, "top": 5078792.2682999996, "right": 442737.9313, "bottom": 5065270.8103999998 }, "geometry": { "type": "LineString", "coordinates": [ [ 15.782272425159276, 45.850636514950544 ], [ 15.783832250951445, 45.728980293409599 ] ] } },
{ "type": "Feature", "properties": { "id": 16, "left": 443737.9313, "top": 5078792.2682999996, "right": 443737.9313, "bottom": 5065270.8103999998 }, "geometry": { "type": "LineString", "coordinates": [ [ 15.795147468695665, 45.850716662718654 ], [ 15.79667931904225, 45.729060103689811 ] ] } },
{ "type": "Feature", "properties": { "id": 17, "left": 444737.9313, "top": 5078792.2682999996, "right": 444737.9313, "bottom": 5065270.8103999998 }, "geometry": { "type": "LineString", "coordinates": [ [ 15.808022566207617, 45.850795359907941 ], [ 15.809526440682932, 45.729138469498416 ] ] } },
{ "type": "Feature", "properties": { "id": 18, "left": 445737.9313, "top": 5078792.2682999996, "right": 445737.9313, "bottom": 5065270.8103999998 }, "geometry": { "type": "LineString", "coordinates": [ [ 15.820897716709581, 45.850872606502676 ], [ 15.822373614895723, 45.729215390819761 ] ] } },
{ "type": "Feature", "properties": { "id": 19, "left": 446737.9313, "top": 5078792.2682999996, "right": 446737.9313, "bottom": 5065270.8103999998 }, "geometry": { "type": "LineString", "coordinates": [ [ 15.833772919215985, 45.850948402487418 ], [ 15.835220840702812, 45.729290867638561 ] ] } },
{ "type": "Feature", "properties": { "id": 20, "left": 447737.9313, "top": 5078792.2682999996, "right": 447737.9313, "bottom": 5065270.8103999998 }, "geometry": { "type": "LineString", "coordinates": [ [ 15.846648172741233, 45.85102274784704 ], [ 15.848068117126383, 45.72936489993976 ] ] } },
{ "type": "Feature", "properties": { "id": 21, "left": 448737.9313, "top": 5078792.2682999996, "right": 448737.9313, "bottom": 5065270.8103999998 }, "geometry": { "type": "LineString", "coordinates": [ [ 15.859523476299701, 45.851095642566676 ], [ 15.860915443188569, 45.72943748770863 ] ] } },
{ "type": "Feature", "properties": { "id": 22, "left": 449737.9313, "top": 5078792.2682999996, "right": 449737.9313, "bottom": 5065270.8103999998 }, "geometry": { "type": "LineString", "coordinates": [ [ 15.872398828905744, 45.851167086631776 ], [ 15.87376281791151, 45.729508630930724 ] ] } },
{ "type": "Feature", "properties": { "id": 23, "left": 450737.9313, "top": 5078792.2682999996, "right": 450737.9313, "bottom": 5065270.8103999998 }, "geometry": { "type": "LineString", "coordinates": [ [ 15.885274229573691, 45.851237080028042 ], [ 15.886610240317294, 45.729578329591845 ] ] } },
{ "type": "Feature", "properties": { "id": 24, "left": 451737.9313, "top": 5078792.2682999996, "right": 451737.9313, "bottom": 5065270.8103999998 }, "geometry": { "type": "LineString", "coordinates": [ [ 15.898149677317846, 45.851305622741499 ], [ 15.899457709428011, 45.729646583678125 ] ] } },
{ "type": "Feature", "properties": { "id": 25, "left": 452737.9313, "top": 5078792.2682999996, "right": 452737.9313, "bottom": 5065270.8103999998 }, "geometry": { "type": "LineString", "coordinates": [ [ 15.911025171152495, 45.851372714758455 ], [ 15.912305224265708, 45.729713393175977 ] ] } },
{ "type": "Feature", "properties": { "id": 26, "left": 453737.9313, "top": 5078792.2682999996, "right": 453737.9313, "bottom": 5065270.8103999998 }, "geometry": { "type": "LineString", "coordinates": [ [ 15.923900710091898, 45.851438356065515 ], [ 15.925152783852424, 45.729778758072094 ] ] } },
{ "type": "Feature", "properties": { "id": 27, "left": 454737.9313, "top": 5078792.2682999996, "right": 454737.9313, "bottom": 5065270.8103999998 }, "geometry": { "type": "LineString", "coordinates": [ [ 15.936776293150295, 45.851502546649535 ], [ 15.938000387210167, 45.729842678353464 ] ] } },
{ "type": "Feature", "properties": { "id": 28, "left": 455737.9313, "top": 5078792.2682999996, "right": 455737.9313, "bottom": 5065270.8103999998 }, "geometry": { "type": "LineString", "coordinates": [ [ 15.949651919341905, 45.851565286497717 ], [ 15.950848033360929, 45.729905154007334 ] ] } },
{ "type": "Feature", "properties": { "id": 29, "left": 456737.9313, "top": 5078792.2682999996, "right": 456737.9313, "bottom": 5065270.8103999998 }, "geometry": { "type": "LineString", "coordinates": [ [ 15.962527587680921, 45.8516265755975 ], [ 15.96369572132668, 45.72996618502129 ] ] } },
{ "type": "Feature", "properties": { "id": 30, "left": 457737.9313, "top": 5078792.2682999996, "right": 457737.9313, "bottom": 5065270.8103999998 }, "geometry": { "type": "LineString", "coordinates": [ [ 15.975403297181524, 45.851686413936655 ], [ 15.976543450129375, 45.730025771383154 ] ] } },
{ "type": "Feature", "properties": { "id": 31, "left": 458737.9313, "top": 5078792.2682999996, "right": 458737.9313, "bottom": 5065270.8103999998 }, "geometry": { "type": "LineString", "coordinates": [ [ 15.988279046857871, 45.851744801503216 ], [ 15.989391218790939, 45.730083913081067 ] ] } },
{ "type": "Feature", "properties": { "id": 32, "left": 459737.9313, "top": 5078792.2682999996, "right": 459737.9313, "bottom": 5065270.8103999998 }, "geometry": { "type": "LineString", "coordinates": [ [ 16.001154835724094, 45.851801738285516 ], [ 16.002239026333285, 45.730140610103462 ] ] } },
{ "type": "Feature", "properties": { "id": 33, "left": 460737.9313, "top": 5078792.2682999996, "right": 460737.9313, "bottom": 5065270.8103999998 }, "geometry": { "type": "LineString", "coordinates": [ [ 16.014030662794315, 45.851857224272209 ], [ 16.015086871778308, 45.730195862439025 ] ] } },
{ "type": "Feature", "properties": { "id": 34, "left": 461737.9313, "top": 5078792.2682999996, "right": 461737.9313, "bottom": 5065270.8103999998 }, "geometry": { "type": "LineString", "coordinates": [ [ 16.026906527082634, 45.851911259452159 ], [ 16.027934754147878, 45.730249670076773 ] ] } },
{ "type": "Feature", "properties": { "id": 35, "left": 462737.9313, "top": 5078792.2682999996, "right": 462737.9313, "bottom": 5065270.8103999998 }, "geometry": { "type": "LineString", "coordinates": [ [ 16.039782427603136, 45.851963843814595 ], [ 16.040782672463859, 45.730302033005962 ] ] } },
{ "type": "Feature", "properties": { "id": 36, "left": 463737.9313, "top": 5078792.2682999996, "right": 463737.9313, "bottom": 5065270.8103999998 }, "geometry": { "type": "LineString", "coordinates": [ [ 16.052658363369879, 45.852014977349008 ], [ 16.053630625748081, 45.730352951216197 ] ] } },
{ "type": "Feature", "properties": { "id": 37, "left": 464737.9313, "top": 5078792.2682999996, "right": 464737.9313, "bottom": 5065270.8103999998 }, "geometry": { "type": "LineString", "coordinates": [ [ 16.065534333396911, 45.852064660045173 ], [ 16.066478613022376, 45.730402424697317 ] ] } },
{ "type": "Feature", "properties": { "id": 38, "left": 465737.9313, "top": 5078792.2682999996, "right": 465737.9313, "bottom": 5065270.8103999998 }, "geometry": { "type": "LineString", "coordinates": [ [ 16.078410336698262, 45.852112891893178 ], [ 16.079326633308543, 45.73045045343946 ] ] } },
{ "type": "Feature", "properties": { "id": 39, "left": 466737.9313, "top": 5078792.2682999996, "right": 466737.9313, "bottom": 5065270.8103999998 }, "geometry": { "type": "LineString", "coordinates": [ [ 16.091286372287954, 45.852159672883353 ], [ 16.092174685628372, 45.730497037433068 ] ] } },
{ "type": "Feature", "properties": { "id": 40, "left": 467737.9313, "top": 5078792.2682999996, "right": 467737.9313, "bottom": 5065270.8103999998 }, "geometry": { "type": "LineString", "coordinates": [ [ 16.104162439179976, 45.852205003006397 ], [ 16.105022769003643, 45.730542176668877 ] ] } },
{ "type": "Feature", "properties": { "id": 41, "left": 468737.9313, "top": 5078792.2682999996, "right": 468737.9313, "bottom": 5065270.8103999998 }, "geometry": { "type": "LineString", "coordinates": [ [ 16.117038536388318, 45.852248882253214 ], [ 16.117870882456117, 45.730585871137876 ] ] } }
]
}
