{
"type": "FeatureCollection",
"name": "school_wgs_Vrbani",
"crs": { "type": "name", "properties": { "name": "urn:ogc:def:crs:OGC:1.3:CRS84" } },
"features": [
{ "type": "Feature", "properties": { "id": null }, "geometry": { "type": "MultiPolygon", "coordinates": [ [ [ [ 15.91746840869787, 45.792416999358807 ], [ 15.917865361464221, 45.792512977506121 ], [ 15.918017646276384, 45.792219708927838 ], [ 15.917613252276672, 45.792121953467777 ], [ 15.91746840869787, 45.792416999358807 ] ] ] ] } },
{ "type": "Feature", "properties": { "id": null }, "geometry": { "type": "MultiPolygon", "coordinates": [ [ [ [ 15.91792984423142, 45.792530705098805 ], [ 15.918120841916515, 45.792580395363089 ], [ 15.918354249968102, 45.792139647311053 ], [ 15.918401359258965, 45.792153806379737 ], [ 15.918444381150241, 45.792082689155599 ], [ 15.918494176506506, 45.792077722874915 ], [ 15.918522628448363, 45.792062317252473 ], [ 15.91853543143919, 45.792049441846395 ], [ 15.91854436989084, 45.792034480631976 ], [ 15.918541643501705, 45.792020112519943 ], [ 15.918534711170244, 45.792006592957222 ], [ 15.918495117399972, 45.791987252470513 ], [ 15.918530750274817, 45.791909137975232 ], [ 15.918260332019829, 45.791843384879115 ], [ 15.918273074949477, 45.791813871329474 ], [ 15.918038390165972, 45.791760343057433 ], [ 15.917981620982532, 45.791867819421434 ], [ 15.918202297290104, 45.791923125130388 ], [ 15.918179312058385, 45.79196590768354 ], [ 15.917688181092888, 45.79183813233869 ], [ 15.917604663193966, 45.791991416620625 ], [ 15.918128780113836, 45.792123818824543 ], [ 15.91792984423142, 45.792530705098805 ] ] ] ] } }
]
}
