{
"type": "FeatureCollection",
"name": "shopping_centar_Vrbani",
"crs": { "type": "name", "properties": { "name": "urn:ogc:def:crs:OGC:1.3:CRS84" } },
"features": [
{ "type": "Feature", "properties": { "id": "way/234587196", "id_2": null }, "geometry": { "type": "MultiPolygon", "coordinates": [ [ [ [ 15.9140009, 45.7912405 ], [ 15.9142181, 45.7913831 ], [ 15.9144706, 45.7911961 ], [ 15.9138323, 45.7907769 ], [ 15.913544, 45.7905875 ], [ 15.9134622, 45.7905338 ], [ 15.9133427, 45.7906222 ], [ 15.9132612, 45.7906825 ], [ 15.9129665, 45.7909007 ], [ 15.9134766, 45.7912357 ], [ 15.9137578, 45.7914204 ], [ 15.9140009, 45.7912405 ] ] ] ] } }
]
}
