{
"type": "FeatureCollection",
"name": "trgovine_Vrbani",
"crs": { "type": "name", "properties": { "name": "urn:ogc:def:crs:OGC:1.3:CRS84" } },
"features": [
{ "type": "Feature", "properties": { "id": "way/34293097", "id_2": null }, "geometry": { "type": "MultiPolygon", "coordinates": [ [ [ [ 15.9161269, 45.7916575 ], [ 15.9157546, 45.7922154 ], [ 15.9158135, 45.7922345 ], [ 15.9156653, 45.7924563 ], [ 15.9156048, 45.7924378 ], [ 15.9149606, 45.7922128 ], [ 15.9148481, 45.7923703 ], [ 15.9149722, 45.7924135 ], [ 15.9151763, 45.7924873 ], [ 15.9154015, 45.7925711 ], [ 15.9154657, 45.792596 ], [ 15.9154916, 45.7925633 ], [ 15.9155174, 45.7925733 ], [ 15.9155691, 45.7925937 ], [ 15.9155924, 45.7926026 ], [ 15.9154876, 45.7927353 ], [ 15.9156007, 45.7927788 ], [ 15.9159446, 45.7923436 ], [ 15.9160816, 45.7921675 ], [ 15.9161097, 45.7921305 ], [ 15.9159985, 45.7920896 ], [ 15.9160831, 45.7919777 ], [ 15.9162076, 45.7918089 ], [ 15.9162808, 45.7917075 ], [ 15.9161269, 45.7916575 ] ] ] ] } },
{ "type": "Feature", "properties": { "id": "way/34293098", "id_2": null }, "geometry": { "type": "MultiPolygon", "coordinates": [ [ [ [ 15.9155889, 45.7917621 ], [ 15.9154447, 45.7917768 ], [ 15.9152499, 45.7917966 ], [ 15.915108, 45.7918111 ], [ 15.9149045, 45.7918318 ], [ 15.9146294, 45.7918598 ], [ 15.9145682, 45.791866 ], [ 15.9145816, 45.79193 ], [ 15.9146669, 45.7919877 ], [ 15.9156159, 45.791891 ], [ 15.9155889, 45.7917621 ] ] ] ] } },
{ "type": "Feature", "properties": { "id": "way/34293190", "id_2": null }, "geometry": { "type": "MultiPolygon", "coordinates": [ [ [ [ 15.9147643, 45.7930453 ], [ 15.9149033, 45.7929502 ], [ 15.9150378, 45.7928548 ], [ 15.9147645, 45.7926563 ], [ 15.9146202, 45.792557 ], [ 15.9145554, 45.7925123 ], [ 15.9144667, 45.7924513 ], [ 15.9143778, 45.7925125 ], [ 15.9142276, 45.7926159 ], [ 15.91412, 45.7926899 ], [ 15.9142519, 45.7927877 ], [ 15.9144296, 45.7926833 ], [ 15.914414, 45.7926723 ], [ 15.9144317, 45.79266 ], [ 15.9143944, 45.7926339 ], [ 15.914444, 45.7925995 ], [ 15.9145545, 45.7926769 ], [ 15.9145436, 45.7926845 ], [ 15.9147136, 45.7928036 ], [ 15.9147243, 45.7927962 ], [ 15.9148357, 45.7928742 ], [ 15.9147844, 45.7929098 ], [ 15.914755, 45.7928893 ], [ 15.9147328, 45.7929048 ], [ 15.914716, 45.792893 ], [ 15.9146858, 45.792914 ], [ 15.9146766, 45.7929086 ], [ 15.9145545, 45.7929948 ], [ 15.9146947, 45.7930909 ], [ 15.9147643, 45.7930453 ] ] ] ] } },
{ "type": "Feature", "properties": { "id": "way/34396047", "id_2": null }, "geometry": { "type": "MultiPolygon", "coordinates": [ [ [ [ 15.9140547, 45.7933664 ], [ 15.9139964, 45.7934076 ], [ 15.9140236, 45.7934263 ], [ 15.9139725, 45.7934625 ], [ 15.9139317, 45.7934345 ], [ 15.9139448, 45.7934252 ], [ 15.9136674, 45.7932342 ], [ 15.9136516, 45.7932453 ], [ 15.9136033, 45.7932121 ], [ 15.9136605, 45.7931717 ], [ 15.9136908, 45.7931926 ], [ 15.9140313, 45.7929519 ], [ 15.913878, 45.7928465 ], [ 15.9133444, 45.7932236 ], [ 15.9139551, 45.7936437 ], [ 15.9140883, 45.7935495 ], [ 15.9141977, 45.7934722 ], [ 15.9142558, 45.7934312 ], [ 15.9144205, 45.7933148 ], [ 15.9144842, 45.7932697 ], [ 15.9143359, 45.7931677 ], [ 15.9140547, 45.7933664 ] ] ] ] } },
{ "type": "Feature", "properties": { "id": "way/41775091", "id_2": null }, "geometry": { "type": "MultiPolygon", "coordinates": [ [ [ [ 15.9152674, 45.7900742 ], [ 15.915379, 45.790152 ], [ 15.9152906, 45.790179 ], [ 15.9151815, 45.7901041 ], [ 15.9150159, 45.790149 ], [ 15.9157111, 45.7906398 ], [ 15.9158729, 45.7905413 ], [ 15.9158461, 45.7905188 ], [ 15.9159858, 45.7904243 ], [ 15.9158656, 45.7903405 ], [ 15.9157884, 45.7903824 ], [ 15.9158399, 45.7904243 ], [ 15.9157626, 45.7904842 ], [ 15.9153618, 45.7902238 ], [ 15.9154562, 45.7901879 ], [ 15.9154991, 45.7902238 ], [ 15.9156279, 45.7901759 ], [ 15.9154193, 45.7900234 ], [ 15.9152674, 45.7900742 ] ] ] ] } },
{ "type": "Feature", "properties": { "id": "way/234587196", "id_2": null }, "geometry": { "type": "MultiPolygon", "coordinates": [ [ [ [ 15.9140009, 45.7912405 ], [ 15.9142181, 45.7913831 ], [ 15.9144706, 45.7911961 ], [ 15.9138323, 45.7907769 ], [ 15.913544, 45.7905875 ], [ 15.9134622, 45.7905338 ], [ 15.9133427, 45.7906222 ], [ 15.9132612, 45.7906825 ], [ 15.9129665, 45.7909007 ], [ 15.9134766, 45.7912357 ], [ 15.9137578, 45.7914204 ], [ 15.9140009, 45.7912405 ] ] ] ] } },
{ "type": "Feature", "properties": { "id": "way/392555113", "id_2": null }, "geometry": { "type": "MultiPolygon", "coordinates": [ [ [ [ 15.9192074, 45.7911316 ], [ 15.9191892, 45.7911771 ], [ 15.9191788, 45.7911751 ], [ 15.9191637, 45.7912129 ], [ 15.9191741, 45.7912149 ], [ 15.9191366, 45.7913091 ], [ 15.9191261, 45.791307 ], [ 15.9191109, 45.7913453 ], [ 15.9191214, 45.7913473 ], [ 15.9190831, 45.7914432 ], [ 15.9190726, 45.7914412 ], [ 15.9190581, 45.7914775 ], [ 15.9190686, 45.7914796 ], [ 15.9190529, 45.7915191 ], [ 15.9190636, 45.7915212 ], [ 15.9190431, 45.7915727 ], [ 15.9189712, 45.7915588 ], [ 15.9189769, 45.7915445 ], [ 15.9189223, 45.7915339 ], [ 15.9189148, 45.7915478 ], [ 15.9187872, 45.7915231 ], [ 15.9187959, 45.7915012 ], [ 15.9187421, 45.7914908 ], [ 15.9187333, 45.7915127 ], [ 15.9186655, 45.7914995 ], [ 15.918603, 45.7916561 ], [ 15.9186731, 45.7916697 ], [ 15.9186771, 45.7916596 ], [ 15.9187002, 45.7916641 ], [ 15.9187288, 45.7916696 ], [ 15.9187319, 45.7916618 ], [ 15.9187692, 45.791669 ], [ 15.9188, 45.791675 ], [ 15.9188037, 45.7916657 ], [ 15.9188266, 45.7916701 ], [ 15.9188632, 45.7916772 ], [ 15.9188563, 45.7916943 ], [ 15.9188907, 45.791701 ], [ 15.9189161, 45.7917059 ], [ 15.9189229, 45.7916888 ], [ 15.9189915, 45.7917021 ], [ 15.9190171, 45.7916379 ], [ 15.9190814, 45.7916503 ], [ 15.9190725, 45.7916729 ], [ 15.9191933, 45.7916963 ], [ 15.9192122, 45.7916489 ], [ 15.9192373, 45.7916537 ], [ 15.9192473, 45.7916287 ], [ 15.9192525, 45.7916156 ], [ 15.9192438, 45.7916139 ], [ 15.9192652, 45.7915602 ], [ 15.9192488, 45.7915571 ], [ 15.9192654, 45.7915154 ], [ 15.9192818, 45.7915186 ], [ 15.9192857, 45.7915087 ], [ 15.9192954, 45.7914844 ], [ 15.919279, 45.7914812 ], [ 15.9193173, 45.7913853 ], [ 15.9193337, 45.7913884 ], [ 15.9193411, 45.7913697 ], [ 15.9193489, 45.7913502 ], [ 15.9193325, 45.791347 ], [ 15.9193701, 45.7912529 ], [ 15.9193865, 45.7912561 ], [ 15.9193923, 45.7912415 ], [ 15.9194016, 45.7912182 ], [ 15.9193852, 45.7912151 ], [ 15.9194033, 45.7911696 ], [ 15.9192112, 45.7911323 ], [ 15.9192074, 45.7911316 ] ] ] ] } }
]
}
